FENGYUN 1C DEB          
1 36266U 99025DWT 17345.55800101  .00000823  00000-0  52009-3 0  9990
2 36266  98.9120 264.3321 0069811 249.8892 109.4754 14.05756637197744
